GLOBALSTAR M068         
1 32266U 07048D   25271.19436358 -.00000050  00000+0  29811-3 0  9993
2 32266  51.9914 348.2558 0001007  31.9269 350.8162 12.62829030830574
GLOBALSTAR M079         
1 37188U 10054A   25271.21601867 -.00000070  00000+0  19090-3 0  9994
2 37188  52.0031 186.1505 0000697  89.1190  66.1750 12.62267137689461
GLOBALSTAR M074         
1 37189U 10054B   25271.07246853 -.00000073  00000+0  17279-3 0  9999
2 37189  52.0011 185.8947 0000548  66.6186  35.2864 12.62271598690052
GLOBALSTAR M076         
1 37190U 10054C   25271.18857111 -.00000084  00000+0  10816-3 0  9990
2 37190  52.0023 185.7220 0000430  92.6794  56.6836 12.62265561689781
GLOBALSTAR M077         
1 37191U 10054D   25261.11398905 -.00000105  00000+0 -68518-5 0  9993
2 37191  52.0064 173.2575 0000611  67.5371  70.5425 12.62323380688888
GLOBALSTAR M075         
1 37192U 10054E   25271.28033729 -.00000067  00000+0  20280-3 0  9991
2 37192  51.9934 227.6410 0000426  64.0321  83.3830 12.62267943688868
GLOBALSTAR M073         
1 37193U 10054F   25271.12624543 -.00000084  00000+0  10822-3 0  9995
2 37193  52.0048 142.0095 0000763  90.4066  75.8987 12.62262997690832
GLOBALSTAR M083         
1 37739U 11033A   25270.72469252 -.00000098  00000+0  34535-4 0  9991
2 37739  51.9846  91.8190 0000958  95.3231 346.1028 12.62276281659806
GLOBALSTAR M088         
1 37740U 11033B   25271.24124891 -.00000078  00000+0  14312-3 0  9996
2 37740  52.0245 356.0409 0000563  96.0792 293.0013 12.62268098655418
GLOBALSTAR M091         
1 37741U 11033C   25271.17671142 -.00000089  00000+0  81616-4 0  9999
2 37741  52.0011 319.5899 0000593  93.7512 303.0622 12.62259972656199
GLOBALSTAR M085         
1 37742U 11033D   25271.17488807 -.00000087  00000+0  94157-4 0  9996
2 37742  52.0117 270.6587 0000581  83.9871   4.1347 12.62265080656701
GLOBALSTAR M081         
1 37743U 11033E   25271.12015052 -.00000082  00000+0  12353-3 0  9992
2 37743  51.9947 273.5606 0000431 102.4157 336.2020 12.62268654656845
GLOBALSTAR M089         
1 37744U 11033F   25271.24111480 -.00000070  00000+0  18777-3 0  9991
2 37744  51.9919 227.3984 0000247  40.8988  48.4585 12.62267192657703
GLOBALSTAR M084         
1 38040U 11080A   25270.52870215 -.00000099  00000+0  25745-4 0  9996
2 38040  51.9993  96.9087 0000502  94.3519 295.7918 12.62269198635595
GLOBALSTAR M080         
1 38041U 11080B   25270.92133971 -.00000105  00000+0 -73509-5 0  9993
2 38041  52.0045  97.3417 0001176  69.4745  74.9853 12.62269364635769
GLOBALSTAR M082         
1 38042U 11080C   25270.77735505 -.00000106  00000+0 -13211-4 0  9992
2 38042  52.0084  53.2495 0001089  84.2488  56.4485 12.62268798636455
GLOBALSTAR M092         
1 38043U 11080D   25271.14702551 -.00000091  00000+0  73113-4 0  9999
2 38043  52.0070 142.5109 0000765  75.5083  64.8837 12.62266204634956
GLOBALSTAR M090         
1 38044U 11080E   25270.88842782 -.00000111  00000+0 -40394-4 0  9990
2 38044  52.0136  46.7826 0000897 102.8744  62.2286 12.62262413636584
GLOBALSTAR M086         
1 38045U 11080F   25270.57841160 -.00000091  00000+0  71626-4 0  9994
2 38045  51.9911  48.0831 0001244 155.1088 285.6100 12.62277503636496
GLOBALSTAR M097         
1 39072U 13005A   25271.14228486 -.00000083  00000+0  11825-3 0  9993
2 39072  52.0063 321.0274 0000556 112.7493 247.3433 12.62265869583819
GLOBALSTAR M093         
1 39073U 13005B   25271.27462302 -.00000086  00000+0  10188-3 0  9999
2 39073  52.0117 313.8720 0000752 115.4966 244.5979 12.62264685583783
GLOBALSTAR M094         
1 39074U 13005C   25270.32414654 -.00000089  00000+0  83236-4 0  9990
2 39074  51.9945 231.1395 0000603  86.2927 273.8009 12.62269985585271
GLOBALSTAR M096         
1 39075U 13005D   25271.20836172 -.00000093  00000+0  60838-4 0  9990
2 39075  52.0066 277.0443 0000564  93.9285 266.1646 12.62267143584308
GLOBALSTAR M078         
1 39076U 13005E   25271.26152072 -.00000146  00000+0 -23722-3 0  9997
2 39076  51.9901   1.2530 0001275  68.8746 291.2257 12.62258434582939
GLOBALSTAR M095         
1 39077U 13005F   25271.28751237 -.00000084  00000+0  10814-3 0  9996
2 39077  52.0111 358.4055 0001046  97.2836 262.8150 12.62260035582796
GLOBALSTAR M087         
1 52888U 22064A   25271.06358878 -.00000091  00000+0  73755-4 0  9998
2 52888  51.9981 140.4784 0000952  82.9021 277.1954 12.62288928158032
